{
  "norad_id": 63040,
  "name": "STARLINK-32832",
  "history": [
    {
      "epoch": "2026-03-28T17:44:53.463552Z",
      "apogee_km": 475.8019246976137,
      "perigee_km": 474.5551695332815,
      "latitude_deg": 3.822966220406338e-07,
      "longitude_deg": 77.24290759122522,
      "height_km": 476.2244502943856,
      "semi_major_axis_km": 6853.315547115447,
      "eccentricity": 9.096e-05,
      "inclination_deg": 53.1572,
      "raan_deg": 169.6213,
      "arg_perigee_deg": 103.697,
      "mean_anomaly_deg": 256.4132,
      "mean_motion_rev_day": 15.30212232
    }
  ]
}