{"fetched_at":"2026-03-30T09:12:31Z","count":15922,"tles":[{"name":"STARLINK-32832","line1":"1 63040U 25034M   26087.73950768  .00013505  00000+0  46708-3 0  9996","line2":"2 63040  53.1572 169.6213 0000909 103.6970 256.4132 15.30212232 62002","category":"Starlink"}]}